{"fetched_at":"2026-04-01T16:59:04Z","count":11445,"tles":[{"name":"STARLINK-37181","line1":"1 68341U 26059W   26090.66668981 -.01908523  00000+0 -10164-1 0  9993","line2":"2 68341  53.1594 252.5782 0000926  73.8240 218.8218 15.82710798  2575","category":"Starlink"}]}